ONEWEB-0446             
1 51640U 22012U   25065.25194888  .00000331  00000+0  91315-3 0  9994
2 51640  87.8868 129.5631 0001767  95.9482 264.1846 13.10369764149340
ONEWEB-0448             
1 51641U 22012V   25064.72242103 -.00000061  00000+0 -21217-3 0  9996
2 51641  87.8868 129.6680 0001993 106.5999 253.5347 13.10369583147940
ONEWEB-0449             
1 51642U 22012W   25064.72739745 -.00000298  00000+0 -89006-3 0  9992
2 51642  87.8864 129.6479 0001785 109.6954 250.4366 13.10369837147957
ONEWEB-0451             
1 51643U 22012X   25064.53081069  .00000039  00000+0  68059-4 0  9998
2 51643  87.9014  99.2027 0001812 101.0385 259.0950 13.17647055151948
ONEWEB-0452             
1 51644U 22012Y   25064.52912135  .00000023  00000+0  25263-4 0  9998
2 51644  87.9020  99.2590 0001952 106.6472 253.4874 13.17646611153250
ONEWEB-0456             
1 51646U 22012AA  25064.73734914 -.00000682  00000+0 -19912-2 0  9995
2 51646  87.8861 129.6085 0002152  99.5909 260.5462 13.10371283147998
ONEWEB-0457             
1 51647U 22012AB  25065.24863169  .00000519  00000+0  14505-2 0  9998
2 51647  87.8869 129.5526 0001562 108.1194 252.0104 13.10370730149361
ONEWEB-0458             
1 51648U 22012AC  25064.73569009 -.00000598  00000+0 -17500-2 0  9995
2 51648  87.8856 129.6511 0002028 106.6055 253.5295 13.10370902147951
